[{"OBJECT_NAME":"STARLINK-4184","OBJECT_ID":"2022-062Y","EPOCH":"2026-03-09T01:09:20.449440","MEAN_MOTION":15.08833143,"ECCENTRICITY":0.00015065,"INCLINATION":53.2188,"RA_OF_ASC_NODE":26.9984,"ARG_OF_PERICENTER":90.3183,"MEAN_ANOMALY":269.7982,"EPHEMERIS_TYPE":0,"CLASSIFICATION_TYPE":"U","NORAD_CAT_ID":52852,"ELEMENT_SET_NO":999,"REV_AT_EPOCH":20582,"BSTAR":-3.8868107e-5,"MEAN_MOTION_DOT":-9.06e-6,"MEAN_MOTION_DDOT":0},{"OBJECT_NAME":"DMSP 5D-2 F11 DEB","OBJECT_ID":"1991-082AJ","EPOCH":"2026-03-09T06:39:32.486112","MEAN_MOTION":15.08629375,"ECCENTRICITY":0.00070318,"INCLINATION":98.5181,"RA_OF_ASC_NODE":189.4283,"ARG_OF_PERICENTER":237.8685,"MEAN_ANOMALY":152.6153,"EPHEMERIS_TYPE":0,"CLASSIFICATION_TYPE":"U","NORAD_CAT_ID":28321,"ELEMENT_SET_NO":999,"REV_AT_EPOCH":14288,"BSTAR":0.0082823802,"MEAN_MOTION_DOT":0.00131946,"MEAN_MOTION_DDOT":0}]
